[{"OBJECT_NAME":"JILIN-1 GAOFEN 03D47","OBJECT_ID":"2022-167L","EPOCH":"2026-03-09T22:56:46.924224","MEAN_MOTION":15.31686941,"ECCENTRICITY":0.00089304,"INCLINATION":97.6835,"RA_OF_ASC_NODE":234.6581,"ARG_OF_PERICENTER":110.4031,"MEAN_ANOMALY":249.8169,"EPHEMERIS_TYPE":0,"CLASSIFICATION_TYPE":"U","NORAD_CAT_ID":54692,"ELEMENT_SET_NO":999,"REV_AT_EPOCH":18014,"BSTAR":0.00047294748,"MEAN_MOTION_DOT":0.00014417,"MEAN_MOTION_DDOT":0},{"OBJECT_NAME":"STARLINK-31271","OBJECT_ID":"2024-017B","EPOCH":"2026-03-09T16:39:48.687264","MEAN_MOTION":15.30164711,"ECCENTRICITY":0.00018948,"INCLINATION":53.1612,"RA_OF_ASC_NODE":204.538,"ARG_OF_PERICENTER":45.1159,"MEAN_ANOMALY":314.9995,"EPHEMERIS_TYPE":0,"CLASSIFICATION_TYPE":"U","NORAD_CAT_ID":58827,"ELEMENT_SET_NO":999,"REV_AT_EPOCH":12005,"BSTAR":0.0025908967,"MEAN_MOTION_DOT":0.00077091,"MEAN_MOTION_DDOT":0}]
